OBJECT_NAME,OBJECT_ID,EPOCH,MEAN_MOTION,ECCENTRICITY,INCLINATION,RA_OF_ASC_NODE,ARG_OF_PERICENTER,MEAN_ANOMALY,EPHEMERIS_TYPE,CLASSIFICATION_TYPE,NORAD_CAT_ID,ELEMENT_SET_NO,REV_AT_EPOCH,BSTAR,MEAN_MOTION_DOT,MEAN_MOTION_DDOT
OPS 6582 (TRANSIT 5B-5),1964-083D,2026-07-08T07:39:25.217568,13.57014762,.00403862,90.0755,203.2085,213.6636,157.1944,0,U,965,999,4648,.40216748E-4,.38E-6,0
LES-1,1965-008C,2026-07-08T18:22:00.123744,9.88354818,.00153979,32.1484,353.5941,347.3731,12.6379,0,U,1002,999,21832,-.39667688E-3,.5E-7,0
SOLRAD 7B,1965-016D,2026-07-08T16:40:04.083744,13.94978074,.00183716,70.0771,190.5386,93.2090,267.1118,0,U,1291,999,11970,.40772438E-4,.3E-7,0
SECOR 4 (EGRS 4),1965-027B,2026-07-08T20:26:59.159904,12.92668020,.00322067,90.2488,16.0649,141.3228,285.8243,0,U,1315,999,88972,-.4034168E-5,.6E-7,0
ALOUETTE 2,1965-098A,2026-07-08T16:02:23.990208,12.28369956,.13305465,79.7980,258.3748,188.9576,168.5431,0,U,1804,999,68191,.16161389E-3,.502E-5,0
OV3-3,1966-070A,2026-07-08T22:10:09.262848,13.46126390,.10093146,81.3264,311.8274,101.2784,270.3330,0,U,2389,999,60189,.49897553E-3,.11309E-3,0
ERS 15,1966-077C,2026-07-08T04:12:32.860512,8.59079516,.00068846,90.3371,277.4806,49.4520,310.6930,0,U,2412,999,39226,0,.2E-7,0
ISIS 1,1969-009A,2026-07-08T06:11:37.620384,11.30436001,.17070012,88.4447,142.0854,205.6602,144.9162,0,U,3669,999,36215,.41989565E-4,.66E-6,0
OPS 7613 (P/L 4),1969-082E,2026-07-08T22:58:29.664192,13.95999791,.00179871,70.0147,57.3851,103.3936,354.5981,0,U,4237,999,88934,.31058679E-4,-.1E-6,0
OPS 7613 (P/L 1),1969-082B,2026-07-08T16:23:16.804896,13.99202672,.00181235,70.0100,278.8368,30.3961,329.8193,0,U,4256,999,89347,.60601899E-4,.35E-6,0
SHINSEI (MS-F2),1971-080A,2026-07-08T11:36:35.529984,12.74254121,.06398903,32.0568,10.9765,179.9329,180.1417,0,U,5485,999,55197,.84087483E-4,.7E-6,0
PROSPERO (BLACK ARROW),1971-093A,2026-07-08T17:10:28.135488,14.01677593,.05016519,82.0380,271.9317,165.2684,196.3746,0,U,5580,999,75154,.35199455E-3,.1667E-4,0
OPS 7898 (P/L 2),1971-110C,2026-07-08T18:42:34.764192,13.74760543,.00066337,69.9910,318.3584,160.1588,199.9766,0,U,5680,999,35118,.37716817E-4,-.14E-6,0
NOAA 2 (ITOS-D),1972-082A,2026-07-08T23:43:06.045888,12.53215683,.0004521,102.0073,208.7984,125.9776,260.9286,0,U,6235,999,45768,.62193083E-4,-.37E-6,0
OSCAR 7 (AO-7),1974-089B,2026-07-09T00:00:07.376832,12.53698428,.00126637,101.9902,203.4739,89.8010,297.9034,0,U,7530,999,36325,.4622615E-4,-.39E-6,0
PHASE 3B (AO-10),1983-058B,2026-07-08T05:57:58.960512,2.05869766,.60038265,25.9305,216.0918,121.4539,310.7883,0,U,14129,999,29592,0,.202E-5,0
HILAT,1983-063A,2026-07-08T22:30:50.887008,14.38725137,.00381055,82.0250,140.8060,223.3021,199.4027,0,U,14154,999,25071,.76022742E-4,.251E-5,0
UOSAT 2 (UO-11),1984-021B,2026-07-08T21:37:11.343072,14.90838473,.00091475,97.8071,155.2351,108.6371,251.5841,0,U,14781,999,26036,.9638644E-4,.894E-5,0
NOAA 9,1984-123A,2026-07-08T16:15:59.874048,14.17073760,.00136136,99.0983,216.8132,290.5106,180.5458,0,U,15427,999,14646,.48541597E-4,.51E-6,0
GEOSAT,1985-021A,2026-07-08T18:05:57.258816,14.39976861,.00017156,108.0410,126.3259,295.5912,64.5052,0,U,15595,999,16587,.63572024E-4,.64E-6,0
EUTELSAT 1-F4 (ECS 4),1987-078B,2026-07-08T14:35:56.721696,0.98690719,.00101756,13.8130,341.9760,46.4112,306.2477,0,U,18351,999,12696,0,-.149E-5,0
LUSAT (LO-19),1990-005G,2026-07-08T22:47:39.225984,14.34129487,.00123067,98.8846,212.3544,138.4757,221.7364,0,U,20442,999,90551,.37668599E-4,.59E-6,0
