[
  {
    "name": "NOAA 9",
    "tle1": "1 15427U 84123A   26189.67777632  .00000051  00000-0  48542-4 0  9991",
    "tle2": "2 15427  99.0983 216.8132 0013614 290.5106 180.5458 14.17073760146468",
    "category": "weather"
  },
  {
    "name": "OSCAR 11 (UOSAT 2)",
    "tle1": "1 14781U 84021B   26189.90082573  .00000894  00000-0  96386-4 0  9993",
    "tle2": "2 14781  97.8071 155.2351 0009148 108.6371 251.5841 14.90838473260365",
    "category": "other"
  },
  {
    "name": "OSCAR 7",
    "tle1": "1 07530U 74089B   26190.00008538 -.00000039  00000-0  46226-4 0  9992",
    "tle2": "2 07530 101.9902 203.4739 0012664  89.8010 297.9034 12.53698428363253",
    "category": "other"
  },
  {
    "name": "OSCAR 19 (LUSAT)",
    "tle1": "1 20442U 90005G   26189.94975956  .00000059  00000-0  37669-4 0  9995",
    "tle2": "2 20442  98.8846 212.3544 0012307 138.4757 221.7364 14.34129487905514",
    "category": "other"
  },
  {
    "name": "OPS 6582 (TRANSIT 5B-5)",
    "tle1": "1 00965U 64083D   26189.31904187  .00000038  00000-0  40217-4 0  9999",
    "tle2": "2 00965  90.0755 203.2085 0040386 213.6636 157.1944 13.57014762 46485",
    "category": "other"
  },
  {
    "name": "OSCAR 10",
    "tle1": "1 14129U 83058B   26189.24859908  .00000202  00000-0  00000-0 0  9996",
    "tle2": "2 14129  25.9305 216.0918 6003827 121.4539 310.7883  2.05869766295927",
    "category": "other"
  },
  {
    "name": "LES 1",
    "tle1": "1 01002U 65008C   26189.76527921  .00000005  00000-0 -39668-3 0  9998",
    "tle2": "2 01002  32.1484 353.5941 0015398 347.3731  12.6379  9.88354818218329",
    "category": "other"
  },
  {
    "name": "SOLRAD 7B",
    "tle1": "1 01291U 65016D   26189.69449171  .00000003  00000-0  40772-4 0  9995",
    "tle2": "2 01291  70.0771 190.5386 0018372  93.2090 267.1118 13.94978074119709",
    "category": "other"
  },
  {
    "name": "ALOUETTE 2",
    "tle1": "1 01804U 65098A   26189.66833322  .00000502  00000-0  16161-3 0  9995",
    "tle2": "2 01804  79.7980 258.3748 1330547 188.9576 168.5431 12.28369956681913",
    "category": "other"
  },
  {
    "name": "OV3-3",
    "tle1": "1 02389U 66070A   26189.92371832  .00011309  00000-0  49898-3 0  9997",
    "tle2": "2 02389  81.3264 311.8274 1009315 101.2784 270.3330 13.46126390601893",
    "category": "other"
  },
  {
    "name": "ERS 15",
    "tle1": "1 02412U 66077C   26189.17538033  .00000002  00000-0  00000-0 0  9993",
    "tle2": "2 02412  90.3371 277.4806 0006885  49.4520 310.6930  8.59079516392263",
    "category": "other"
  },
  {
    "name": "ISIS 1",
    "tle1": "1 03669U 69009A   26189.25807431  .00000066  00000-0  41990-4 0  9993",
    "tle2": "2 03669  88.4447 142.0854 1707001 205.6602 144.9162 11.30436001362155",
    "category": "other"
  },
  {
    "name": "OPS 7613 (P/L 4)",
    "tle1": "1 04237U 69082E   26189.95728778 -.00000010  00000-0  31059-4 0  9994",
    "tle2": "2 04237  70.0147  57.3851 0017987 103.3936 354.5981 13.95999791889342",
    "category": "other"
  },
  {
    "name": "OPS 7613 (P/L 1)",
    "tle1": "1 04256U 69082B   26189.68283339  .00000035  00000-0  60602-4 0  9996",
    "tle2": "2 04256  70.0100 278.8368 0018123  30.3961 329.8193 13.99202672893473",
    "category": "other"
  },
  {
    "name": "SHINSEI (MS-F2)",
    "tle1": "1 05485U 71080A   26189.48374456  .00000070  00000-0  84087-4 0  9993",
    "tle2": "2 05485  32.0568  10.9765 0639890 179.9329 180.1417 12.74254121551979",
    "category": "other"
  },
  {
    "name": "OPS 7898 (P/L 2)",
    "tle1": "1 05680U 71110C   26189.77956903 -.00000014  00000-0  37717-4 0  9996",
    "tle2": "2 05680  69.9910 318.3584 0006634 160.1588 199.9766 13.74760543351180",
    "category": "other"
  },
  {
    "name": "EUTE 1-F4 (ECS 4)",
    "tle1": "1 18351U 87078B   26189.60829539 -.00000149  00000-0  00000-0 0  9991",
    "tle2": "2 18351  13.8130 341.9760 0010176  46.4112 306.2477  0.98690719126961",
    "category": "other"
  },
  {
    "name": "PROSPERO (BLACK ARROW)",
    "tle1": "1 05580U 71093A   26189.71560342  .00001667  00000-0  35199-3 0  9992",
    "tle2": "2 05580  82.0380 271.9317 0501652 165.2684 196.3746 14.01677593751543",
    "category": "other"
  },
  {
    "name": "SECOR 4 (EGRS 4)",
    "tle1": "1 01315U 65027B   26189.85207361  .00000006  00000-0 -40342-5 0  9993",
    "tle2": "2 01315  90.2488  16.0649 0032207 141.3228 285.8243 12.92668020889726",
    "category": "other"
  },
  {
    "name": "GEOSAT",
    "tle1": "1 15595U 85021A   26189.75413494  .00000064  00000-0  63572-4 0  9991",
    "tle2": "2 15595 108.0410 126.3259 0001716 295.5912  64.5052 14.39976861165870",
    "category": "other"
  },
  {
    "name": "HILAT",
    "tle1": "1 14154U 83063A   26189.93808897  .00000251  00000-0  76023-4 0  9993",
    "tle2": "2 14154  82.0250 140.8060 0038105 223.3021 199.4027 14.38725137250711",
    "category": "other"
  },
  {
    "name": "NOAA 2 (ITOS-D)",
    "tle1": "1 06235U 72082A   26189.98826442 -.00000037  00000-0  62193-4 0  9990",
    "tle2": "2 06235 102.0073 208.7984 0004521 125.9776 260.9286 12.53215683457687",
    "category": "weather"
  }
]